{
  "type": "FeatureCollection",
  "features": [
    {
      "type": "Feature",
      "properties": {
        "norad_id": 32212,
        "name": "FENGYUN 1C DEB",
        "group": "fengyun-1c-debris",
        "lat": 4.883255130558383,
        "lon": -82.61780881920959,
        "alt_km": 822.3665924575726,
        "timestamp": "2025-12-24T11:33:00.303323+00:00",
        "meta_object_name": "FENGYUN 1C DEB",
        "meta_object_id": "1999-025CVJ",
        "meta_epoch": "2025-12-22T12:21:50.056416",
        "meta_mean_motion": 14.40349995,
        "meta_eccentricity": 0.01376106,
        "meta_inclination": 99.5728,
        "meta_ra_of_asc_node": 94.3588,
        "meta_arg_of_pericenter": 50.2821,
        "meta_mean_anomaly": 14.4282,
        "meta_ephemeris_type": 0,
        "meta_classification_type": "U",
        "meta_norad_cat_id": 32212,
        "meta_element_set_no": 999,
        "meta_rev_at_epoch": 96202,
        "meta_bstar": 0.00040041333,
        "meta_mean_motion_dot": 1.362e-05,
        "meta_mean_motion_ddot": 0,
        "tle_line1": "1 32212U 99025CVJ 25356.51516269  .00001362  00000+0  40041-3 0  9994",
        "tle_line2": "2 32212  99.5728  94.3588 0137610  50.2821  14.4282 14.40349995962023"
      },
      "geometry": {
        "type": "Point",
        "coordinates": [
          -82.61780881920959,
          4.883255130558383
        ]
      }
    },
    {
      "type": "Feature",
      "properties": {
        "norad_id": 32214,
        "name": "FENGYUN 1C DEB",
        "group": "fengyun-1c-debris",
        "lat": 65.44875503708184,
        "lon": 3.3835400134405123,
        "alt_km": 849.2351967997256,
        "timestamp": "2025-12-24T11:33:00.303333+00:00",
        "meta_object_name": "FENGYUN 1C DEB",
        "meta_object_id": "1999-025CVL",
        "meta_epoch": "2025-12-24T01:00:42.312096",
        "meta_mean_motion": 13.90653385,
        "meta_eccentricity": 0.01879,
        "meta_inclination": 99.0434,
        "meta_ra_of_asc_node": 23.36,
        "meta_arg_of_pericenter": 8.367,
        "meta_mean_anomaly": 19.8193,
        "meta_ephemeris_type": 0,
        "meta_classification_type": "U",
        "meta_norad_cat_id": 32214,
        "meta_element_set_no": 999,
        "meta_rev_at_epoch": 62579,
        "meta_bstar": 0.0037386,
        "meta_mean_motion_dot": 5.338e-05,
        "meta_mean_motion_ddot": 0,
        "tle_line1": "1 32214U 99025CVL 25358.04215639  .00005338  00000+0  37386-2 0  9997",
        "tle_line2": "2 32214  99.0434  23.3600 0187900   8.3670  19.8193 13.90653385625799"
      },
      "geometry": {
        "type": "Point",
        "coordinates": [
          3.3835400134405123,
          65.44875503708184
        ]
      }
    },
    {
      "type": "Feature",
      "properties": {
        "norad_id": 32218,
        "name": "FENGYUN 1C DEB",
        "group": "fengyun-1c-debris",
        "lat": 22.49842331096744,
        "lon": 16.672928017903914,
        "alt_km": 732.5834288677961,
        "timestamp": "2025-12-24T11:33:00.303343+00:00",
        "meta_object_name": "FENGYUN 1C DEB",
        "meta_object_id": "1999-025CVQ",
        "meta_epoch": "2025-12-23T07:36:34.166304",
        "meta_mean_motion": 14.55556257,
        "meta_eccentricity": 0.00630125,
        "meta_inclination": 98.8113,
        "meta_ra_of_asc_node": 191.7617,
        "meta_arg_of_pericenter": 35.6741,
        "meta_mean_anomaly": 144.0031,
        "meta_ephemeris_type": 0,
        "meta_classification_type": "U",
        "meta_norad_cat_id": 32218,
        "meta_element_set_no": 999,
        "meta_rev_at_epoch": 96386,
        "meta_bstar": 0.00081649274,
        "meta_mean_motion_dot": 3.602e-05,
        "meta_mean_motion_ddot": 0,
        "tle_line1": "1 32218U 99025CVQ 25357.31706211  .00003602  00000+0  81649-3 0  9995",
        "tle_line2": "2 32218  98.8113 191.7617 0063012  35.6741 144.0031 14.55556257963868"
      },
      "geometry": {
        "type": "Point",
        "coordinates": [
          16.672928017903914,
          22.49842331096744
        ]
      }
    },
    {
      "type": "Feature",
      "properties": {
        "norad_id": 32221,
        "name": "FENGYUN 1C DEB",
        "group": "fengyun-1c-debris",
        "lat": -1.1599623875785492,
        "lon": -31.405010745076815,
        "alt_km": 665.6713680150788,
        "timestamp": "2025-12-24T11:33:00.303354+00:00",
        "meta_object_name": "FENGYUN 1C DEB",
        "meta_object_id": "1999-025CVT",
        "meta_epoch": "2025-12-22T15:56:06.454176",
        "meta_mean_motion": 14.58733387,
        "meta_eccentricity": 0.01471175,
        "meta_inclination": 98.5663,
        "meta_ra_of_asc_node": 146.8961,
        "meta_arg_of_pericenter": 115.3214,
        "meta_mean_anomaly": 246.3306,
        "meta_ephemeris_type": 0,
        "meta_classification_type": "U",
        "meta_norad_cat_id": 32221,
        "meta_element_set_no": 999,
        "meta_rev_at_epoch": 97342,
        "meta_bstar": 0.00030266237,
        "meta_mean_motion_dot": 1.585e-05,
        "meta_mean_motion_ddot": 0,
        "tle_line1": "1 32221U 99025CVT 25356.66396359  .00001585  00000+0  30266-3 0  9991",
        "tle_line2": "2 32221  98.5663 146.8961 0147117 115.3214 246.3306 14.58733387973420"
      },
      "geometry": {
        "type": "Point",
        "coordinates": [
          -31.405010745076815,
          -1.1599623875785492
        ]
      }
    },
    {
      "type": "Feature",
      "properties": {
        "norad_id": 32223,
        "name": "FENGYUN 1C DEB",
        "group": "fengyun-1c-debris",
        "lat": -80.71143905766752,
        "lon": 149.61271866089726,
        "alt_km": 796.2398220892774,
        "timestamp": "2025-12-24T11:33:00.303364+00:00",
        "meta_object_name": "FENGYUN 1C DEB",
        "meta_object_id": "1999-025CVV",
        "meta_epoch": "2025-12-13T23:18:00.552672",
        "meta_mean_motion": 14.20905079,
        "meta_eccentricity": 0.00468432,
        "meta_inclination": 98.839,
        "meta_ra_of_asc_node": 67.0353,
        "meta_arg_of_pericenter": 313.8611,
        "meta_mean_anomaly": 224.3875,
        "meta_ephemeris_type": 0,
        "meta_classification_type": "U",
        "meta_norad_cat_id": 32223,
        "meta_element_set_no": 999,
        "meta_rev_at_epoch": 64241,
        "meta_bstar": 0.0016444924,
        "meta_mean_motion_dot": 3.554e-05,
        "meta_mean_motion_ddot": 0,
        "tle_line1": "1 32223U 99025CVV 25347.97083973  .00003554  00000+0  16445-2 0  9992",
        "tle_line2": "2 32223  98.8390  67.0353 0046843 313.8611 224.3875 14.20905079642418"
      },
      "geometry": {
        "type": "Point",
        "coordinates": [
          149.61271866089726,
          -80.71143905766752
        ]
      }
    },
    {
      "type": "Feature",
      "properties": {
        "norad_id": 32224,
        "name": "FENGYUN 1C DEB",
        "group": "fengyun-1c-debris",
        "lat": -37.11138328694991,
        "lon": 123.06913053333007,
        "alt_km": 839.4156253407891,
        "timestamp": "2025-12-24T11:33:00.303375+00:00",
        "meta_object_name": "FENGYUN 1C DEB",
        "meta_object_id": "1999-025CVW",
        "meta_epoch": "2025-12-23T19:28:11.282016",
        "meta_mean_motion": 14.34043092,
        "meta_eccentricity": 0.0076924,
        "meta_inclination": 98.9856,
        "meta_ra_of_asc_node": 309.249,
        "meta_arg_of_pericenter": 34.5375,
        "meta_mean_anomaly": 326.0771,
        "meta_ephemeris_type": 0,
        "meta_classification_type": "U",
        "meta_norad_cat_id": 32224,
        "meta_element_set_no": 999,
        "meta_rev_at_epoch": 95882,
        "meta_bstar": 0.00032636408,
        "meta_mean_motion_dot": 8.95e-06,
        "meta_mean_motion_ddot": 0,
        "tle_line1": "1 32224U 99025CVW 25357.81124169  .00000895  00000+0  32636-3 0  9996",
        "tle_line2": "2 32224  98.9856 309.2490 0076924  34.5375 326.0771 14.34043092958820"
      },
      "geometry": {
        "type": "Point",
        "coordinates": [
          123.06913053333007,
          -37.11138328694991
        ]
      }
    },
    {
      "type": "Feature",
      "properties": {
        "norad_id": 32225,
        "name": "FENGYUN 1C DEB",
        "group": "fengyun-1c-debris",
        "lat": 6.995815169181159,
        "lon": 46.19939085641507,
        "alt_km": 901.491086404305,
        "timestamp": "2025-12-24T11:33:00.303385+00:00",
        "meta_object_name": "FENGYUN 1C DEB",
        "meta_object_id": "1999-025CVX",
        "meta_epoch": "2025-12-21T22:20:15.589536",
        "meta_mean_motion": 14.13052966,
        "meta_eccentricity": 0.00721095,
        "meta_inclination": 99.091,
        "meta_ra_of_asc_node": 44.7359,
        "meta_arg_of_pericenter": 180.6743,
        "meta_mean_anomaly": 179.4342,
        "meta_ephemeris_type": 0,
        "meta_classification_type": "U",
        "meta_norad_cat_id": 32225,
        "meta_element_set_no": 999,
        "meta_rev_at_epoch": 68246,
        "meta_bstar": 0.00021617663,
        "meta_mean_motion_dot": 3.68e-06,
        "meta_mean_motion_ddot": 0,
        "tle_line1": "1 32225U 99025CVX 25355.93073599  .00000368  00000+0  21618-3 0  9991",
        "tle_line2": "2 32225  99.0910  44.7359 0072109 180.6743 179.4342 14.13052966682467"
      },
      "geometry": {
        "type": "Point",
        "coordinates": [
          46.19939085641507,
          6.995815169181159
        ]
      }
    }
  ]
}